{
  "norad_id": 63945,
  "name": "STARLINK-34036",
  "history": [
    {
      "epoch": "2026-03-28T19:28:26.892768",
      "apogee_km": 574.0972726901555,
      "perigee_km": 569.9558092393645,
      "latitude_deg": -15.351772237745951,
      "longitude_deg": -67.60345248016529,
      "semi_major_axis_km": 6950.16354096476,
      "eccentricity": 0.00029794,
      "inclination_deg": 70.0011,
      "raan_deg": 226.365,
      "arg_perigee_deg": 267.4137,
      "mean_anomaly_deg": 92.6681,
      "mean_motion_rev_day": 14.98339491
    },
    {
      "epoch": "2026-03-29T01:52:59.154816",
      "apogee_km": 574.0908113349433,
      "perigee_km": 569.9721414958185,
      "latitude_deg": -55.26442373817387,
      "longitude_deg": -41.96760576008819,
      "semi_major_axis_km": 6950.168476415381,
      "eccentricity": 0.0002963,
      "inclination_deg": 70.002,
      "raan_deg": 225.6909,
      "arg_perigee_deg": 271.1869,
      "mean_anomaly_deg": 88.8951,
      "mean_motion_rev_day": 14.98337895
    }
  ]
}